2026-134H               
1 69545U 26134H   26178.19607963  .00005990  00000+0  37419-3 0  9999
2 69545  97.7036 248.3486 0014459 242.1652 117.8112 15.09764700  1802
STARLINK-37880          
1 69546U 26135A   26178.16670139 -.00004801  00000+0 -24337-4 0  9991
2 69546  97.2823 205.7386 0001502  87.3974 342.1828 15.80816701  2917
STARLINK-37881          
1 69547U 26135B   26178.02731061  .00298621  00000+0  14963-2 0  9994
2 69547  97.2820 205.5922 0001219  99.2066 260.9340 15.80972314  1815
STARLINK-37265          
1 69548U 26135C   26178.02666580  .00419939  00000+0  20758-2 0  9994
2 69548  97.2827 205.5927 0001103 150.7973 209.3357 15.80957987  1814
STARLINK-37871          
1 69549U 26135D   26178.02570845  .00478543  00000+0  23396-2 0  9990
2 69549  97.2828 205.5941 0001613 132.8996 227.2408 15.81049471  1811
STARLINK-37865          
1 69550U 26135E   26178.02426281  .00474724  00000+0  23222-2 0  9991
2 69550  97.2829 205.5957 0001364 137.5585 222.5789 15.81046020  1817
STARLINK-37862          
1 69551U 26135F   26178.02146073  .00327586  00000+0  16401-2 0  9994
2 69551  97.2831 205.5997 0000808 117.8249 242.3101 15.80914631  1814
STARLINK-37861          
1 69552U 26135G   26178.01955853  .00315202  00000+0  15810-2 0  9993
2 69552  97.2833 205.6026 0001355 100.5134 259.6287 15.80906840  1810
STARLINK-37859          
1 69553U 26135H   26178.08192404  .00214984  00000+0  10913-2 0  9990
2 69553  97.2832 205.6707 0001056  53.9570 306.1795 15.80903127  1827
STARLINK-37860          
1 69554U 26135J   26178.01834715  .00310372  00000+0  15572-2 0  9996
2 69554  97.2834 205.6041 0001516  90.5823 269.5619 15.80912721  1816
STARLINK-37858          
1 69555U 26135K   26178.01653115  .00323973  00000+0  16231-2 0  9994
2 69555  97.2830 205.6070 0000907 104.5633 255.5736 15.80909932  1818
STARLINK-37927          
1 69556U 26135L   26178.07959220  .00137085  00000+0  70365-3 0  9993
2 69556  97.2839 205.6749 0000586 112.1262 248.0068 15.80865285  1825
STARLINK-37929          
1 69557U 26135M   26178.07875881  .00107355  00000+0  55313-3 0  9997
2 69557  97.2846 205.6753 0001344  73.2047 286.9369 15.80863582  1823
STARLINK-37954          
1 69558U 26135N   26178.07753638  .00196741  00000+0  10006-2 0  9999
2 69558  97.2834 205.6761 0000770  73.9963 286.1390 15.80909366  1823
STARLINK-37958          
1 69559U 26135P   26178.07507170  .00173952  00000+0  88715-3 0  9990
2 69559  97.2833 205.6803 0001321 114.2659 245.8747 15.80908505  1826
STARLINK-37950          
1 69560U 26135Q   26178.01162654  .00318747  00000+0  15974-2 0  9999
2 69560  97.2836 205.6136 0001172  99.5205 260.6196 15.80916186  1812
STARLINK-37952          
1 69561U 26135R   26178.07352853  .00322526  00000+0  16218-2 0  9990
2 69561  97.2835 205.6822 0002636 115.4611 244.6930 15.80832509  1824
STARLINK-37935          
1 69562U 26135S   26178.07275625  .00210660  00000+0  10697-2 0  9992
2 69562  97.2831 205.6841 0000691   9.2281 350.8999 15.80907374  1822
STARLINK-37936          
1 69563U 26135T   26178.06574059  .00089648  00000+0  46273-3 0  9995
2 69563  97.2845 205.6922 0001140  50.2769 309.8599 15.80874728  1821
STARLINK-37932          
1 69564U 26135U   26178.06538310  .00131029  00000+0  67232-3 0  9995
2 69564  97.2829 205.6938 0001290  88.8472 271.2944 15.80889544  1823
STARLINK-37916          
1 69565U 26135V   26178.06483170  .00244145  00000+0  12352-2 0  9995
2 69565  97.2843 205.6963 0000690  44.8476 315.2848 15.80900978  1824
STARLINK-37909          
1 69566U 26135W   26178.05852183  .00185204  00000+0  94391-3 0  9993
2 69566  97.2836 205.7035 0000823  39.3356 320.7972 15.80893564  1823
STARLINK-37934          
1 69567U 26135X   26178.06172659  .00190627  00000+0  97043-3 0  9990
2 69567  97.2831 205.6994 0001182  27.7971 332.3360 15.80904487  1822
STARLINK-37938          
1 69568U 26135Y   26178.05928338  .00185464  00000+0  94536-3 0  9990
2 69568  97.2834 205.7033 0000759  60.9526 299.1819 15.80889839  1827
STARLINK-37924          
1 69569U 26135Z   26178.18312434  .00237745  00000+0  12028-2 0  9994
2 69569  97.2834 205.8392 0001002  79.9118 280.2263 15.80917569  1844
SHIJIAN-31 (SJ-31)      
1 69570U 26136A   26177.85872020  .00000134  00000+0  00000+0 0  9996
2 69570  63.4776 355.0815 6941070 171.7702 212.4513  1.92223544   270
GUOWANG OBJECT A        
1 69572U 26137A   26177.78578471 -.00000009  00000+0  11075-3 0  9994
2 69572  50.0001 217.1612 0012618 257.1229 102.8260 13.89812769  1355
GUOWANG OBJECT B        
1 69573U 26137B   26178.07044272  .00000033  00000+0  14508-3 0  9995
2 69573  49.9998 216.0001 0011843 257.3797 102.5777 13.89804777  1405
GUOWANG OBJECT C        
1 69574U 26137C   26177.99753888  .00000059  00000+0  16563-3 0  9997
2 69574  49.9959 216.2704 0011895 258.3651 101.5912 13.89815443  1392
